[{"OBJECT_NAME":"STARLINK-4291","OBJECT_ID":"2022-076C","EPOCH":"2026-03-09T12:13:03.705888","MEAN_MOTION":15.08832472,"ECCENTRICITY":0.00014193,"INCLINATION":53.2165,"RA_OF_ASC_NODE":94.9284,"ARG_OF_PERICENTER":87.4333,"MEAN_ANOMALY":272.6821,"EPHEMERIS_TYPE":0,"CLASSIFICATION_TYPE":"U","NORAD_CAT_ID":52988,"ELEMENT_SET_NO":999,"REV_AT_EPOCH":20281,"BSTAR":4.8660881e-5,"MEAN_MOTION_DOT":4.86e-6,"MEAN_MOTION_DDOT":0},{"OBJECT_NAME":"SL-3 R\/B","OBJECT_ID":"1982-039B","EPOCH":"2026-03-09T22:07:28.779168","MEAN_MOTION":15.10083319,"ECCENTRICITY":0.00297187,"INCLINATION":81.1583,"RA_OF_ASC_NODE":215.6942,"ARG_OF_PERICENTER":323.7089,"MEAN_ANOMALY":36.212,"EPHEMERIS_TYPE":0,"CLASSIFICATION_TYPE":"U","NORAD_CAT_ID":13154,"ELEMENT_SET_NO":999,"REV_AT_EPOCH":38167,"BSTAR":0.00020843464,"MEAN_MOTION_DOT":3.451e-5,"MEAN_MOTION_DDOT":0}]
